NORAD_CAT_ID,OBJECT_NAME,OBJECT_TYPE,EPOCH,MEAN_MOTION,ECCENTRICITY,INCLINATION,RA_OF_ASC_NODE,ARG_OF_PERICENTER,MEAN_ANOMALY,BSTAR,MEAN_MOTION_DOT,MEAN_MOTION_DDOT,TLE_LINE0,TLE_LINE1,TLE_LINE2,SEMIMAJOR_AXIS,PERIOD,APOGEE,PERIGEE,DECAYED
53169.0,STARLINK-4117,PAYLOAD,2023-12-25 20:46:34,15.08816294,0.000116,53.2158,162.3748,106.7259,253.3861,-0.00018495,-3.228e-05,0.0,0 STARLINK-4117,1 53169U 22083AP  23359.86567512 -.00003228  00000-0 -18495-3 0  9998,2 53169  53.2158 162.3748 0001160 106.7259 253.3861 15.08816294 80054,6917.953,95.439,540.62,539.015,0.0
53169.0,STARLINK-4117,PAYLOAD,2023-12-26 11:05:01,15.08833656,0.0001491,53.2162,159.7034,41.4763,318.6342,-4.0305e-05,-9.29e-06,0.0,0 STARLINK-4117,1 53169U 22083AP  23360.46182645 -.00000929  00000-0 -40305-4 0  9997,2 53169  53.2162 159.7034 0001491  41.4763 318.6342 15.08833656 80789,6917.9,95.438,540.796,538.733,0.0
53169.0,STARLINK-4117,PAYLOAD,2023-12-26 14:15:47,15.08840059,0.0001265,53.214,159.1102,67.2666,292.8459,7.3154e-06,-1.71e-06,0.0,0 STARLINK-4117,1 53169U 22083AP  23360.59430018 -.00000171  00000-0  73154-5 0  9998,2 53169  53.2140 159.1102 0001265  67.2666 292.8459 15.08840059 80161,6917.88,95.438,540.62,538.87,0.0
53169.0,STARLINK-4117,PAYLOAD,2023-12-26 17:26:33,15.08848547,0.0001329,53.2155,158.5115,64.5546,295.5583,6.2458e-05,7.06e-06,0.0,0 STARLINK-4117,1 53169U 22083AP  23360.72677370  .00000706  00000-0  62458-4 0  9994,2 53169  53.2155 158.5115 0001329  64.5546 295.5583 15.08848547 80823,6917.854,95.437,540.639,538.8,0.0
53169.0,STARLINK-4117,PAYLOAD,2023-12-27 10:55:47,15.08837276,0.0001164,53.2157,155.2396,76.0556,284.0565,0.0004364,6.664e-05,0.0,0 STARLINK-4117,1 53169U 22083AP  23361.45541269  .00006664  00000-0  43640-3 0  9992,2 53169  53.2157 155.2396 0001164  76.0556 284.0565 15.08837276 80938,6917.889,95.438,540.559,538.948,0.0
53169.0,STARLINK-4117,PAYLOAD,2023-12-27 14:06:34,15.08847938,0.000124,53.2146,154.6452,68.2246,291.8878,0.00058983,9.114e-05,0.0,0 STARLINK-4117,1 53169U 22083AP  23361.58789765  .00009114  00000-0  58983-3 0  9990,2 53169  53.2146 154.6452 0001240  68.2246 291.8878 15.08847938 80317,6917.856,95.437,540.579,538.863,0.0
53169.0,STARLINK-4117,PAYLOAD,2023-12-27 20:28:06,15.08866601,0.0001136,53.2148,153.4548,77.8431,282.2688,0.0006995,0.0001087,0.0,0 STARLINK-4117,1 53169U 22083AP  23361.85285063  .00010870  00000-0  69950-3 0  9999,2 53169  53.2148 153.4548 0001136  77.8431 282.2688 15.08866601 80353,6917.799,95.436,540.45,538.878,0.0
53169.0,STARLINK-4117,PAYLOAD,2023-12-28 10:46:34,15.08849921,0.0001039,53.2154,150.7776,72.4812,287.6294,-0.00013387,-2.418e-05,0.0,0 STARLINK-4117,1 53169U 22083AP  23362.44900846 -.00002418  00000-0 -13387-3 0  9992,2 53169  53.2154 150.7776 0001039  72.4812 287.6294 15.08849921 81088,6917.85,95.437,540.434,538.996,0.0
53169.0,STARLINK-4117,PAYLOAD,2023-12-28 13:57:20,15.08853037,0.0001534,53.2159,150.179,111.5539,248.5617,-3.4421e-05,-8.36e-06,0.0,0 STARLINK-4117,1 53169U 22083AP  23362.58148599 -.00000836  00000-0 -34421-4 0  9991,2 53169  53.2159 150.1790 0001534 111.5539 248.5617 15.08853037 80463,6917.841,95.437,540.767,538.644,0.0
53169.0,STARLINK-4117,PAYLOAD,2023-12-28 15:32:43,15.08852885,0.0001276,53.2167,149.88,108.0622,252.0509,-2.314e-05,-6.56e-06,0.0,0 STARLINK-4117,1 53169U 22083AP  23362.64772665 -.00000656  00000-0 -23140-4 0  9991,2 53169  53.2167 149.8800 0001276 108.0622 252.0509 15.08852885 80477,6917.841,95.437,540.589,538.823,0.0
53169.0,STARLINK-4117,PAYLOAD,2023-12-29 13:48:07,15.08843047,0.0001201,53.2158,145.7218,78.3327,281.78,-7.8655e-05,-1.54e-05,0.0,0 STARLINK-4117,1 53169U 22083AP  23363.57508829 -.00001540  00000-0 -78655-4 0  9997,2 53169  53.2158 145.7218 0001201  78.3327 281.7800 15.08843047 80613,6917.871,95.437,540.567,538.905,0.0
53169.0,STARLINK-4117,PAYLOAD,2023-12-29 16:58:53,15.08846714,0.0001296,53.2161,145.1273,67.3882,292.7247,-4.4258e-05,-9.92e-06,0.0,0 STARLINK-4117,1 53169U 22083AP  23363.70756804 -.00000992  00000-0 -44258-4 0  9992,2 53169  53.2161 145.1273 0001296  67.3882 292.7247 15.08846714 81274,6917.86,95.437,540.621,538.828,0.0
53169.0,STARLINK-4117,PAYLOAD,2023-12-30 08:52:45,15.08840807,0.0001319,53.2157,142.1565,61.2158,298.8967,0.00011548,1.55e-05,0.0,0 STARLINK-4117,1 53169U 22083AP  23364.36997166  .00001550  00000-0  11548-3 0  9997,2 53169  53.2157 142.1565 0001319  61.2158 298.8967 15.08840807 81379,6917.878,95.438,540.655,538.83,0.0
53169.0,STARLINK-4117,PAYLOAD,2023-12-30 13:38:54,15.0884085,0.0001395,53.216,141.2643,58.5935,301.5194,0.00011939,1.613e-05,0.0,0 STARLINK-4117,1 53169U 22083AP  23364.56869204  .00001613  00000-0  11939-3 0  9994,2 53169  53.2160 141.2643 0001395  58.5935 301.5194 15.08840850 80760,6917.878,95.438,540.708,538.778,0.0
53169.0,STARLINK-4117,PAYLOAD,2023-12-30 16:49:41,15.08843962,0.0001363,53.216,140.6689,64.3089,295.8044,0.00015396,2.163e-05,0.0,0 STARLINK-4117,1 53169U 22083AP  23364.70117023  .00002163  00000-0  15396-3 0  9997,2 53169  53.2160 140.6689 0001363  64.3089 295.8044 15.08843962 80781,6917.868,95.437,540.676,538.79,0.0
53169.0,STARLINK-4117,PAYLOAD,2023-12-31 10:18:56,15.08835587,0.0001301,53.2158,137.3983,68.5544,291.5587,6.0427e-05,6.74e-06,0.0,0 STARLINK-4117,1 53169U 22083AP  23365.42981545  .00000674  00000-0  60427-4 0  9996,2 53169  53.2158 137.3983 0001301  68.5544 291.5587 15.08835587 81535,6917.894,95.438,540.659,538.859,0.0
53169.0,STARLINK-4117,PAYLOAD,2023-12-31 16:40:28,15.08841223,0.0001301,53.2165,136.2087,70.809,289.3043,9.1066e-05,1.162e-05,0.0,0 STARLINK-4117,1 53169U 22083AP  23365.69477458  .00001162  00000-0  91066-4 0  9994,2 53169  53.2165 136.2087 0001301  70.8090 289.3043 15.08841223 80937,6917.877,95.437,540.642,538.842,0.0
53169.0,STARLINK-4117,PAYLOAD,2024-01-01 13:20:29,15.08841487,0.0001172,53.2163,132.3425,85.9292,274.1834,7.6847e-05,9.35e-06,0.0,0 STARLINK-4117,1 53169U 22083AP  24001.55589434  .00000935  00000-0  76847-4 0  9992,2 53169  53.2163 132.3425 0001172  85.9292 274.1834 15.08841487 81062,6917.876,95.437,540.552,538.93,0.0
53169.0,STARLINK-4117,PAYLOAD,2024-01-01 14:55:52,15.08842665,0.0001191,53.2164,132.0453,83.0435,277.0693,8.7905e-05,1.112e-05,0.0,0 STARLINK-4117,1 53169U 22083AP  24001.62213350  .00001112  00000-0  87905-4 0  9996,2 53169  53.2164 132.0453 0001191  83.0435 277.0693 15.08842665 81716,6917.872,95.437,540.561,538.913,0.0
53169.0,STARLINK-4117,PAYLOAD,2024-01-02 14:46:38,15.08848293,0.0001225,53.2164,127.5849,79.554,280.5591,0.00015231,2.138e-05,0.0,0 STARLINK-4117,1 53169U 22083AP  24002.61572827  .00002138  00000-0  15231-3 0  9994,2 53169  53.2164 127.5849 0001225  79.5540 280.5591 15.08848293 81224,6917.855,95.437,540.567,538.873,0.0
53169.0,STARLINK-4117,PAYLOAD,2024-01-02 17:57:24,15.08852296,0.0001193,53.2163,126.9898,84.4127,275.7001,0.00018545,2.666e-05,0.0,0 STARLINK-4117,1 53169U 22083AP  24002.74820441  .00002666  00000-0  18545-3 0  9993,2 53169  53.2163 126.9898 0001193  84.4127 275.7001 15.08852296 81882,6917.843,95.437,540.533,538.883,0.0
53169.0,STARLINK-4117,PAYLOAD,2024-01-03 11:26:40,15.08840769,0.0001554,53.2178,123.7129,125.2168,234.897,-2.6697e-05,-7.13e-06,0.0,0 STARLINK-4117,1 53169U 22083AP  24003.47685744 -.00000713  00000-0 -26697-4 0  9990,2 53169  53.2178 123.7129 0001554 125.2168 234.8970 15.08840769 81995,6917.878,95.438,540.818,538.668,0.0
53169.0,STARLINK-4117,PAYLOAD,2024-01-03 13:02:03,15.08839494,0.0001341,53.2178,123.4161,119.9816,240.1309,-3.9556e-05,-9.17e-06,0.0,0 STARLINK-4117,1 53169U 22083AP  24003.54309655 -.00000917  00000-0 -39556-4 0  9996,2 53169  53.2178 123.4161 0001341 119.9816 240.1309 15.08839494 81362,6917.882,95.438,540.675,538.819,0.0
53169.0,STARLINK-4117,PAYLOAD,2024-01-04 11:17:25,15.08865647,0.0001145,53.2168,119.2579,57.6677,302.4426,0.00017656,2.525e-05,0.0,0 STARLINK-4117,1 53169U 22083AP  24004.47043172  .00002525  00000-0  17656-3 0  9999,2 53169  53.2168 119.2579 0001145  57.6677 302.4426 15.08865647 82140,6917.802,95.436,540.459,538.875,0.0
53169.0,STARLINK-4117,PAYLOAD,2024-01-04 12:52:48,15.08863759,0.0001525,53.2162,118.96,68.7216,291.3939,0.00024255,3.577e-05,0.0,0 STARLINK-4117,1 53169U 22083AP  24004.53667630  .00003577  00000-0  24255-3 0  9998,2 53169  53.2162 118.9600 0001525  68.7216 291.3939 15.08863759 81516,6917.808,95.436,540.728,538.618,0.0
53169.0,STARLINK-4117,PAYLOAD,2024-01-05 12:43:37,15.08826613,0.0001578,53.217,114.4949,113.8126,246.3032,-0.00016309,-2.882e-05,0.0,0 STARLINK-4117,1 53169U 22083AP  24005.53029673 -.00002882  00000-0 -16309-3 0  9999,2 53169  53.2170 114.4949 0001578 113.8126 246.3032 15.08826613 82302,6917.921,95.438,540.878,538.695,0.0
53169.0,STARLINK-4117,PAYLOAD,2024-01-06 12:34:24,15.08841876,0.0001539,53.2152,110.0397,100.7707,259.3458,-6.2281e-05,-1.279e-05,0.0,0 STARLINK-4117,1 53169U 22083AP  24006.52389218 -.00001279  00000-0 -62281-4 0  9993,2 53169  53.2152 110.0397 0001539 100.7707 259.3458 15.08841876 82458,6917.875,95.437,540.804,538.675,0.0
53169.0,STARLINK-4117,PAYLOAD,2024-01-06 15:45:08,15.08882211,0.0001445,53.2161,109.4437,100.5425,259.5729,0.00054499,8.406e-05,0.0,0 STARLINK-4117,1 53169U 22083AP  24006.65635111  .00008406  00000-0  54499-3 0  9991,2 53169  53.2161 109.4437 0001445 100.5425 259.5729 15.08882211 82479,6917.751,95.435,540.616,538.617,0.0
53169.0,STARLINK-4117,PAYLOAD,2024-01-07 10:49:49,15.0883541,0.000165,53.2166,105.8749,78.3072,281.8105,0.00023749,3.493e-05,0.0,0 STARLINK-4117,1 53169U 22083AP  24007.45126206  .00003493  00000-0  23749-3 0  9995,2 53169  53.2166 105.8749 0001650  78.3072 281.8105 15.08835410 82596,6917.894,95.438,540.901,538.618,0.0
53169.0,STARLINK-4117,PAYLOAD,2024-01-07 14:00:35,15.08835176,0.0001522,53.2166,105.2802,86.3617,273.7549,0.00020062,2.906e-05,0.0,0 STARLINK-4117,1 53169U 22083AP  24007.58374253  .00002906  00000-0  20062-3 0  9999,2 53169  53.2166 105.2802 0001522  86.3617 273.7549 15.08835176 81974,6917.895,95.438,540.813,538.707,0.0
